[{"OBJECT_NAME":"STARLINK-5837","OBJECT_ID":"2023-058AF","EPOCH":"2026-03-09T21:42:54.065088","MEAN_MOTION":15.01259857,"ECCENTRICITY":0.0002939,"INCLINATION":97.6034,"RA_OF_ASC_NODE":70.4232,"ARG_OF_PERICENTER":180.7925,"MEAN_ANOMALY":179.3295,"EPHEMERIS_TYPE":0,"CLASSIFICATION_TYPE":"U","NORAD_CAT_ID":56346,"ELEMENT_SET_NO":999,"REV_AT_EPOCH":15816,"BSTAR":1.8161836e-5,"MEAN_MOTION_DOT":1.75e-6,"MEAN_MOTION_DDOT":0},{"OBJECT_NAME":"DUMSAT","OBJECT_ID":"2000-009A","EPOCH":"2026-03-09T21:34:49.034496","MEAN_MOTION":14.97147245,"ECCENTRICITY":0.00231559,"INCLINATION":64.8536,"RA_OF_ASC_NODE":17.131,"ARG_OF_PERICENTER":263.9519,"MEAN_ANOMALY":95.8958,"EPHEMERIS_TYPE":0,"CLASSIFICATION_TYPE":"U","NORAD_CAT_ID":26086,"ELEMENT_SET_NO":999,"REV_AT_EPOCH":42337,"BSTAR":4.8857475e-5,"MEAN_MOTION_DOT":4.04e-6,"MEAN_MOTION_DDOT":0}]
